OBJECT_NAME,OBJECT_ID,EPOCH,MEAN_MOTION,ECCENTRICITY,INCLINATION,RA_OF_ASC_NODE,ARG_OF_PERICENTER,MEAN_ANOMALY,EPHEMERIS_TYPE,CLASSIFICATION_TYPE,NORAD_CAT_ID,ELEMENT_SET_NO,REV_AT_EPOCH,BSTAR,MEAN_MOTION_DOT,MEAN_MOTION_DDOT
HAWK-5A,2022-057AB,2026-07-20T09:04:45.868224,15.52437969,.000296,97.6637,2.4043,312.7298,47.3704,0,U,52757,999,23149,.18580214E-3,.11252E-3,0
HAWK-6B,2023-011A,2026-07-20T03:57:29.015424,15.23180588,.00045774,40.4981,159.6818,265.8375,94.1911,0,U,55324,999,19287,.1161883E-3,.2609E-4,0
HAWK-6C,2023-011C,2026-07-20T07:05:24.048672,15.23180433,.00050453,40.4968,155.7556,260.9756,99.0483,0,U,55326,999,19290,.10612287E-3,.2366E-4,0
HAWK-6A,2023-011D,2026-07-20T13:23:06.659808,15.23182716,.00047575,40.4979,155.8528,259.4935,100.5338,0,U,55327,999,19294,.11537868E-3,.259E-4,0
HAWK-7A,2023-054P,2026-07-20T12:27:43.085088,15.27665267,.00010052,97.2653,88.0088,294.4886,65.6248,0,U,56191,999,18211,.12213999E-3,.323E-4,0
HAWK-7B,2023-054R,2026-07-20T06:10:20.000352,15.27664172,.00007442,97.2678,86.0289,7.2484,352.8766,0,U,56193,999,18207,.84125888E-4,.2203E-4,0
HAWK-7C,2023-054Y,2026-07-20T12:27:26.214624,15.27666033,.00004023,97.2656,87.0425,314.2521,45.8686,0,U,56200,999,18211,.12084731E-3,.3195E-4,0
