HAWK-5A                 
1 52757U 22057AB  26201.37830866  .00011252  00000+0  18580-3 0  9999
2 52757  97.6637   2.4043 0002960 312.7298  47.3704 15.52437969231493
HAWK-6B                 
1 55324U 23011A   26201.16491916  .00002609  00000+0  11619-3 0  9991
2 55324  40.4981 159.6818 0004577 265.8375  94.1911 15.23180588192877
HAWK-6C                 
1 55326U 23011C   26201.29541723  .00002366  00000+0  10612-3 0  9991
2 55326  40.4968 155.7556 0005045 260.9756  99.0483 15.23180433192901
HAWK-6A                 
1 55327U 23011D   26201.55771597  .00002590  00000+0  11538-3 0  9992
2 55327  40.4979 155.8528 0004757 259.4935 100.5338 15.23182716192942
HAWK-7A                 
1 56191U 23054P   26201.51924867  .00003230  00000+0  12214-3 0  9999
2 56191  97.2653  88.0088 0001005 294.4886  65.6248 15.27665267182116
HAWK-7B                 
1 56193U 23054R   26201.25717593  .00002203  00000+0  84126-4 0  9999
2 56193  97.2678  86.0289 0000744   7.2484 352.8766 15.27664172182074
HAWK-7C                 
1 56200U 23054Y   26201.51905341  .00003195  00000+0  12085-3 0  9992
2 56200  97.2656  87.0425 0000402 314.2521  45.8686 15.27666033182119
